[Satellite]
VERSION=1.1
NAME=SL-6 R/B(2)
NICKNAME=SL-6 R/B(2)
TLE1=1 20666U 90055D   22342.58544313  .00001777  00000+0  15742-3 0  9998
TLE2=2 20666  62.7836 301.1656 0132435  89.3316 272.2951 14.93823844760269
STATUS=0
